STARLINK-30753          
1 58175U 23167A   24170.44314500 -.00000114  00000+0  66588-5 0  9994
2 58175  43.0057 324.8057 0001131 264.8649  95.2064 15.02534902 36300
STARLINK-30824          
1 58176U 23167B   24170.44203355  .00001665  00000+0  13836-3 0  9997
2 58176  43.0049 324.7976 0001276 273.4687  86.6009 15.02527239 36307
STARLINK-30791          
1 58177U 23167C   24170.45868062  .00000580  00000+0  58022-4 0  9993
2 58177  43.0048 324.9062 0001286 269.2577  90.8118 15.02531580 36309
STARLINK-30810          
1 58178U 23167D   24170.50197414  .00000820  00000+0  75767-4 0  9998
2 58178  43.0052 325.2328 0001150 265.3153  94.7558 15.02522116 36307
STARLINK-30819          
1 58179U 23167E   24170.49863575  .00000019  00000+0  16482-4 0  9994
2 58179  43.0050 325.2066 0001187 263.1019  96.9688 15.02536333 36306
STARLINK-30806          
1 58180U 23167F   24170.49529299 -.00003492  00000+0 -24342-3 0  9991
2 58180  43.0046 325.1819 0001354 266.2573  93.8115 15.02556222 36303
STARLINK-30821          
1 58181U 23167G   24170.12296139 -.00000632  00000+0 -31706-4 0  9992
2 58181  43.0047 326.6856 0001260 266.4545  93.6153 15.02533359 36259
STARLINK-30778          
1 58182U 23167H   24170.11962916  .00000504  00000+0  52387-4 0  9999
2 58182  43.0043 326.6605 0001090 271.3076  88.7641 15.02534733 36257
STARLINK-30809          
1 58183U 23167J   24170.49197387  .00000746  00000+0  70267-4 0  9998
2 58183  43.0064 325.1566 0001462 260.9293  99.1384 15.02534842 36306
STARLINK-30801          
1 58184U 23167K   24170.42217802  .00003424  00000+0  26848-3 0  9998
2 58184  43.0053 325.4938 0001607 268.6248  91.4410 15.02527280 36298
STARLINK-30793          
1 58185U 23167L   24170.44868762  .00001138  00000+0  99298-4 0  9998
2 58185  43.0050 324.8306 0001266 263.5582  96.5117 15.02538916 36304
STARLINK-30755          
1 58186U 23167M   24170.47976587  .00000819  00000+0  75678-4 0  9998
2 58186  43.0060 325.0625 0001291 268.9045  91.1649 15.02537795 36309
STARLINK-30760          
1 58187U 23167N   24170.44536213  .00002868  00000+0  22734-3 0  9994
2 58187  43.0054 324.8014 0001321 260.9708  99.0984 15.02523679 36309
STARLINK-30826          
1 58188U 23167P   24170.41217895 -.00001431  00000+0 -90873-4 0  9991
2 58188  43.0045 325.4152 0000839 225.5532 134.5242 15.02542620 36292
STARLINK-30796          
1 58189U 23167Q   24170.48198823  .00000746  00000+0  70270-4 0  9993
2 58189  43.0059 325.0811 0001345 267.6255  92.4433 15.02535001 36309
STARLINK-30820          
1 58190U 23167R   24170.48531729 -.00000106  00000+0  72057-5 0  9998
2 58190  43.0052 325.0983 0001402 267.2463  92.8219 15.02532974 36307
STARLINK-30785          
1 58191U 23167S   24170.47199099 -.00002504  00000+0 -17025-3 0  9995
2 58191  43.0037 325.0071 0001150 276.3294  83.7417 15.02559785 36300
STARLINK-30807          
1 58192U 23167T   24170.40885017 -.00000075  00000+0  95549-5 0  9990
2 58192  43.0070 325.3943 0001293 268.7396  91.3298 15.02536719 36297
STARLINK-30822          
1 58193U 23167U   24170.46867260 -.00001579  00000+0 -10185-3 0  9999
2 58193  43.0069 324.9817 0001268 274.9217  85.1481 15.02529310 36300
STARLINK-30830          
1 58194U 23167V   24170.13184214 -.00000321  00000+0 -86903-5 0  9992
2 58194  43.0018 326.7413 0001161 268.6061  91.4649 15.02530171 36253
STARLINK-30827          
1 58195U 23167W   24170.46200603  .00001040  00000+0  92072-4 0  9990
2 58195  43.0041 324.9310 0001474 274.0408  86.0266 15.02536018 36306
STARLINK-30798          
1 58196U 23167X   24170.43881222  .00008359  00000+0  63261-3 0  9997
2 58196  43.0044 325.6120 0001330 270.1989  89.8701 15.02566087 36291
STARLINK-30762          
1 58197U 23167Y   24170.46533616 -.00000493  00000+0 -21385-4 0  9997
2 58197  43.0061 324.9488 0001333 275.7353  84.3337 15.02545370 36308
STARLINK-30800          
1 58206U 23170A   24170.25785886  .00001679  00000+0  13932-3 0  9990
2 58206  43.0064  16.3315 0001062 279.1287  80.9435 15.02542647 35591
STARLINK-30845          
1 58207U 23170B   24170.28772097 -.00000162  00000+0  30859-5 0  9990
2 58207  43.0050  15.7146 0000964 279.5851  80.4882 15.02531398 35607
STARLINK-30841          
1 58208U 23170C   24170.26785201 -.00003111  00000+0 -21529-3 0  9990
2 58208  43.0053  16.3887 0001160 274.9559  85.1151 15.02545673 35593
STARLINK-30839          
1 58209U 23170D   24169.98196302  .00000216  00000+0  31061-4 0  9990
2 58209  43.0046  17.6959 0001203 262.0256  98.0449 15.02537391 35557
STARLINK-30846          
1 58210U 23170E   24169.98528851 -.00000770  00000+0 -41887-4 0  9994
2 58210  43.0049  17.7225 0001184 274.1757  85.8950 15.02544578 35553
STARLINK-30838          
1 58211U 23170F   24169.97530281  .00000224  00000+0  31684-4 0  9990
2 58211  43.0068  17.6498 0001199 266.3649  93.7056 15.02533800 35556
STARLINK-30837          
1 58212U 23170G   24170.25453203  .00006408  00000+0  48893-3 0  9991
2 58212  43.0048  16.2845 0001421 272.5550  87.5130 15.02540415 35592
STARLINK-30813          
1 58213U 23170H   24170.30436244  .00000022  00000+0  16723-4 0  9998
2 58213  43.0051  15.8170 0001196 270.3102  89.7603 15.02536281 35608
STARLINK-30805          
1 58214U 23170J   24170.30102492  .00000549  00000+0  55697-4 0  9991
2 58214  43.0059  15.7930 0001327 272.1417  87.9273 15.02543334 35605
STARLINK-30851          
1 58215U 23170K   24170.29770472  .00000090  00000+0  21734-4 0  9995
2 58215  43.0040  15.7639 0001107 270.8088  89.2627 15.02533472 35607
STARLINK-30786          
1 58216U 23170L   24169.77071843 -.00000649  00000+0 -11593-4 0  9997
2 58216  43.0030 320.4913 0001242 277.6973  82.3740 15.32597109 36203
STARLINK-30818          
1 58217U 23170M   24170.29104266 -.00000098  00000+0  78141-5 0  9993
2 58217  43.0059  15.7196 0001264 267.0022  93.0676 15.02537487 35604
STARLINK-30794          
1 58218U 23170N   24169.97863295  .00000324  00000+0  39064-4 0  9992
2 58218  43.0060  17.6558 0001179 268.5380  91.5327 15.02533139 35558
STARLINK-30835          
1 58219U 23170P   24170.28438178  .00000608  00000+0  60111-4 0  9999
2 58219  43.0048  15.6651 0001117 275.0679  85.0036 15.02537626 35609
STARLINK-30792          
1 58220U 23170Q   24170.28105358  .00000175  00000+0  28050-4 0  9997
2 58220  43.0047  15.6393 0001099 271.6697  88.4019 15.02534796 35607
STARLINK-30836          
1 58221U 23170R   24170.27772451  .00000152  00000+0  26335-4 0  9990
2 58221  43.0041  15.6133 0001137 272.0442  88.0270 15.02534441 35602
STARLINK-30855          
1 58222U 23170S   24170.26451707 -.00003208  00000+0 -22236-3 0  9990
2 58222  43.0049  16.3600 0001120 269.0512  91.0202 15.02557548 35594
STARLINK-30840          
1 58223U 23170T   24169.99524852  .00003560  00000+0  27834-3 0  9999
2 58223  43.0060  17.7789 0000996 274.1012  85.9717 15.02556977 35557
STARLINK-30875          
1 58224U 23170U   24170.29436730 -.00000427  00000+0 -16513-4 0  9996
2 58224  43.0058  15.7256 0001331 265.6026  94.4665 15.02542022 35605
STARLINK-30872          
1 58225U 23170V   24170.21430270  .00001756  00000+0  11123-3 0  9997
2 58225  43.0041 357.3516 0000999 267.5625  92.5107 15.12665343 35813
STARLINK-30865          
1 58226U 23170W   24170.23964350  .00001057  00000+0  93282-4 0  9992
2 58226  43.0049   5.1391 0001130 273.6148  86.4565 15.02537502 35721
STARLINK-30874          
1 58227U 23170X   24170.27450787 -.00000350  00000+0 -10867-4 0  9996
2 58227  43.0052  16.4374 0001219 274.3721  85.6983 15.02540916 35598
STARLINK-30871          
1 58228U 23170Y   24170.27118149  .00000484  00000+0  50873-4 0  9997
2 58228  43.0064  16.4107 0001397 259.6582 100.4103 15.02540795 35599
STARLINK-30861          
1 58230U 23171A   24170.53514479 -.00003959  00000+0 -27841-3 0  9996
2 58230  43.0038 104.7040 0000866 255.0974 104.9772 15.02509186 35102
STARLINK-30867          
1 58231U 23171B   24170.53845717  .00010265  00000+0  77425-3 0  9998
2 58231  43.0028 104.7300 0001043 276.3454  83.7270 15.02517529 35105
STARLINK-30880          
1 58232U 23171C   24170.54177557  .00000241  00000+0  32939-4 0  9995
2 58232  43.0035 104.7544 0001127 264.5464  95.5250 15.02537783 35043
STARLINK-30777          
1 58233U 23171D   24170.54843586 -.00001003  00000+0 -59212-4 0  9990
2 58233  43.0025 104.8005 0000796 267.4269  92.6483 15.02544959 35085
STARLINK-30860          
1 58234U 23171E   24170.54510478  .00000766  00000+0  71765-4 0  9992
2 58234  43.0019 104.7761 0000969 266.0720  94.0011 15.02536593 35084
STARLINK-30879          
1 58235U 23171F   24170.53178275 -.00001250  00000+0 -77488-4 0  9996
2 58235  43.0030 104.6644 0001060 265.0818  94.9903 15.02544286 35084
STARLINK-30853          
1 58236U 23171G   24170.55175990  .00000264  00000+0  34591-4 0  9990
2 58236  43.0041 104.8246 0001117 266.0017  94.0698 15.02537492 35085
STARLINK-30866          
1 58237U 23171H   24170.52179695 -.00000091  00000+0  83195-5 0  9998
2 58237  43.0031 104.5941 0001016 270.2269  89.8457 15.02534126 35084
STARLINK-30817          
1 58238U 23171J   24170.22270953 -.00001636  00000+0 -10608-3 0  9999
2 58238  43.0030 106.6484 0000723 242.8558 117.2210 15.02531518 35039
STARLINK-30847          
1 58239U 23171K   24170.22603258  .00000471  00000+0  49936-4 0  9999
2 58239  43.0039 106.6770 0001248 266.5337  93.5363 15.02535278 35030
STARLINK-30848          
1 58240U 23171L   24170.50661332  .00000591  00000+0  58837-4 0  9992
2 58240  43.0030 106.1716 0001052 264.3035  95.7687 15.02533792 35067
STARLINK-30843          
1 58241U 23171M   24170.16288707 -.00000196  00000+0  56221-6 0  9995
2 58241  43.0031 107.0495 0000994 268.2137  91.8591 15.02532578 35043
STARLINK-30877          
1 58242U 23171N   24170.25921348  .00000241  00000+0  32912-4 0  9990
2 58242  43.0026 106.0610 0001196 269.2976  90.7729 15.02534262 35046
